[{"OBJECT_NAME":"STARLINK-6028","OBJECT_ID":"2023-078BD","EPOCH":"2026-03-09T21:12:15.545664","MEAN_MOTION":14.98325669,"ECCENTRICITY":0.00027686,"INCLINATION":69.9992,"RA_OF_ASC_NODE":343.7857,"ARG_OF_PERICENTER":205.7559,"MEAN_ANOMALY":154.3463,"EPHEMERIS_TYPE":0,"CLASSIFICATION_TYPE":"U","NORAD_CAT_ID":56818,"ELEMENT_SET_NO":999,"REV_AT_EPOCH":15340,"BSTAR":0.0002752239,"MEAN_MOTION_DOT":3.192e-5,"MEAN_MOTION_DDOT":0},{"OBJECT_NAME":"CZ-4C R\/B","OBJECT_ID":"2022-106B","EPOCH":"2026-03-09T16:53:51.363744","MEAN_MOTION":15.02433181,"ECCENTRICITY":0.01103472,"INCLINATION":98.0511,"RA_OF_ASC_NODE":147.9459,"ARG_OF_PERICENTER":124.4586,"MEAN_ANOMALY":236.7124,"EPHEMERIS_TYPE":0,"CLASSIFICATION_TYPE":"U","NORAD_CAT_ID":53699,"ELEMENT_SET_NO":999,"REV_AT_EPOCH":19198,"BSTAR":0.00037068081,"MEAN_MOTION_DOT":5.536e-5,"MEAN_MOTION_DDOT":0}]
